[{"OBJECT_NAME":"OBJECT B","OBJECT_ID":"2024-085B","EPOCH":"2026-03-04T05:35:52.242720","MEAN_MOTION":15.93575673,"ECCENTRICITY":0.0008668,"INCLINATION":97.3353,"RA_OF_ASC_NODE":155.161,"ARG_OF_PERICENTER":299.2373,"MEAN_ANOMALY":60.8034,"EPHEMERIS_TYPE":0,"CLASSIFICATION_TYPE":"U","NORAD_CAT_ID":59678,"ELEMENT_SET_NO":999,"REV_AT_EPOCH":10254,"BSTAR":0.0015972,"MEAN_MOTION_DOT":0.00571042,"MEAN_MOTION_DDOT":0.00013359},{"OBJECT_NAME":"RUZAEVKA 390 (RS44S)","OBJECT_ID":"2024-199AH","EPOCH":"2026-03-04T03:01:41.151936","MEAN_MOTION":16.03272199,"ECCENTRICITY":0.00019,"INCLINATION":97.2855,"RA_OF_ASC_NODE":305.0371,"ARG_OF_PERICENTER":163.4709,"MEAN_ANOMALY":196.6633,"EPHEMERIS_TYPE":0,"CLASSIFICATION_TYPE":"U","NORAD_CAT_ID":61766,"ELEMENT_SET_NO":999,"REV_AT_EPOCH":11863,"BSTAR":0.0019003,"MEAN_MOTION_DOT":0.01150025,"MEAN_MOTION_DDOT":0.0007217},{"OBJECT_NAME":"SZ-19 DEB","OBJECT_ID":"2024-194E","EPOCH":"2026-03-04T00:38:34.225728","MEAN_MOTION":16.13757913,"ECCENTRICITY":0.0013137,"INCLINATION":41.4591,"RA_OF_ASC_NODE":197.9398,"ARG_OF_PERICENTER":7.1947,"MEAN_ANOMALY":352.9097,"EPHEMERIS_TYPE":0,"CLASSIFICATION_TYPE":"U","NORAD_CAT_ID":63801,"ELEMENT_SET_NO":999,"REV_AT_EPOCH":4830,"BSTAR":0.00052954,"MEAN_MOTION_DOT":0.00682534,"MEAN_MOTION_DDOT":0.00026921},{"OBJECT_NAME":"COSMOS 2591","OBJECT_ID":"2025-182A","EPOCH":"2026-03-03T23:37:20.381088","MEAN_MOTION":15.96415458,"ECCENTRICITY":0.0006761,"INCLINATION":96.5933,"RA_OF_ASC_NODE":356.3382,"ARG_OF_PERICENTER":171.4708,"MEAN_ANOMALY":188.6687,"EPHEMERIS_TYPE":0,"CLASSIFICATION_TYPE":"U","NORAD_CAT_ID":65267,"ELEMENT_SET_NO":999,"REV_AT_EPOCH":3091,"BSTAR":0.00015095,"MEAN_MOTION_DOT":0.00062288,"MEAN_MOTION_DDOT":3.3351e-6},{"OBJECT_NAME":"COSMOS 2592","OBJECT_ID":"2025-182B","EPOCH":"2026-03-03T23:59:54.009024","MEAN_MOTION":15.96425315,"ECCENTRICITY":0.0005961,"INCLINATION":96.5919,"RA_OF_ASC_NODE":356.3127,"ARG_OF_PERICENTER":184.5144,"MEAN_ANOMALY":175.6082,"EPHEMERIS_TYPE":0,"CLASSIFICATION_TYPE":"U","NORAD_CAT_ID":65268,"ELEMENT_SET_NO":999,"REV_AT_EPOCH":3091,"BSTAR":1.2869e-5,"MEAN_MOTION_DOT":4.774e-5,"MEAN_MOTION_DDOT":1.8649e-6},{"OBJECT_NAME":"COSMOS 2593","OBJECT_ID":"2025-182C","EPOCH":"2026-03-03T13:50:39.101280","MEAN_MOTION":15.96360776,"ECCENTRICITY":0.0004824,"INCLINATION":96.5897,"RA_OF_ASC_NODE":355.8771,"ARG_OF_PERICENTER":174.7624,"MEAN_ANOMALY":185.3705,"EPHEMERIS_TYPE":0,"CLASSIFICATION_TYPE":"U","NORAD_CAT_ID":65269,"ELEMENT_SET_NO":999,"REV_AT_EPOCH":3084,"BSTAR":5.8145e-5,"MEAN_MOTION_DOT":0.00023533,"MEAN_MOTION_DDOT":2.0683e-6},{"OBJECT_NAME":"COSMOS 2594","OBJECT_ID":"2025-182D","EPOCH":"2026-03-04T02:15:20.543328","MEAN_MOTION":15.96329266,"ECCENTRICITY":0.0004905,"INCLINATION":96.5936,"RA_OF_ASC_NODE":356.3402,"ARG_OF_PERICENTER":135.1462,"MEAN_ANOMALY":225.0214,"EPHEMERIS_TYPE":0,"CLASSIFICATION_TYPE":"U","NORAD_CAT_ID":65270,"ELEMENT_SET_NO":999,"REV_AT_EPOCH":3094,"BSTAR":0.00039811,"MEAN_MOTION_DOT":0.00164252,"MEAN_MOTION_DDOT":1.2233e-5},{"OBJECT_NAME":"ISS OBJECT XK","OBJECT_ID":"1998-067XK","EPOCH":"2026-03-04T01:20:24.794592","MEAN_MOTION":16.06563087,"ECCENTRICITY":0.0005697,"INCLINATION":51.6154,"RA_OF_ASC_NODE":76.3709,"ARG_OF_PERICENTER":59.0422,"MEAN_ANOMALY":301.115,"EPHEMERIS_TYPE":0,"CLASSIFICATION_TYPE":"U","NORAD_CAT_ID":65731,"ELEMENT_SET_NO":999,"REV_AT_EPOCH":2599,"BSTAR":0.0014788,"MEAN_MOTION_DOT":0.01140742,"MEAN_MOTION_DDOT":0.00075302},{"OBJECT_NAME":"BOTAN","OBJECT_ID":"1998-067XP","EPOCH":"2026-03-03T07:18:10.975680","MEAN_MOTION":16.26065139,"ECCENTRICITY":0.00029265,"INCLINATION":51.604,"RA_OF_ASC_NODE":82.5602,"ARG_OF_PERICENTER":46.9281,"MEAN_ANOMALY":313.1984,"EPHEMERIS_TYPE":0,"CLASSIFICATION_TYPE":"U","NORAD_CAT_ID":65942,"ELEMENT_SET_NO":999,"REV_AT_EPOCH":2259,"BSTAR":0.0014502781,"MEAN_MOTION_DOT":0.04760636,"MEAN_MOTION_DDOT":1.2040774e-5},{"OBJECT_NAME":"CZ-4B R/B","OBJECT_ID":"2025-289B","EPOCH":"2026-03-04T05:55:44.498784","MEAN_MOTION":16.26954561,"ECCENTRICITY":0.0026579,"INCLINATION":97.5023,"RA_OF_ASC_NODE":141.5416,"ARG_OF_PERICENTER":46.0115,"MEAN_ANOMALY":314.3362,"EPHEMERIS_TYPE":0,"CLASSIFICATION_TYPE":"U","NORAD_CAT_ID":66989,"ELEMENT_SET_NO":999,"REV_AT_EPOCH":1347,"BSTAR":0.00079612,"MEAN_MOTION_DOT":0.02897095,"MEAN_MOTION_DDOT":2.538e-6},{"OBJECT_NAME":"ZK-1A R/B","OBJECT_ID":"2025-292K","EPOCH":"2026-03-04T06:09:42.113952","MEAN_MOTION":16.33309889,"ECCENTRICITY":0.0028508,"INCLINATION":97.6773,"RA_OF_ASC_NODE":150.177,"ARG_OF_PERICENTER":57.1933,"MEAN_ANOMALY":303.2102,"EPHEMERIS_TYPE":0,"CLASSIFICATION_TYPE":"U","NORAD_CAT_ID":67002,"ELEMENT_SET_NO":999,"REV_AT_EPOCH":1323,"BSTAR":0.00080545,"MEAN_MOTION_DOT":0.05565547,"MEAN_MOTION_DDOT":2.705e-6},{"OBJECT_NAME":"STARLINK-36618","OBJECT_ID":"2026-033AC","EPOCH":"2026-03-04T04:00:03.000096","MEAN_MOTION":15.96286263,"ECCENTRICITY":0.0002255,"INCLINATION":42.9858,"RA_OF_ASC_NODE":303.4251,"ARG_OF_PERICENTER":276.0113,"MEAN_ANOMALY":293.0066,"EPHEMERIS_TYPE":0,"CLASSIFICATION_TYPE":"U","NORAD_CAT_ID":67847,"ELEMENT_SET_NO":999,"REV_AT_EPOCH":377,"BSTAR":-0.0022707,"MEAN_MOTION_DOT":-0.00983433,"MEAN_MOTION_DDOT":0.00030594},{"OBJECT_NAME":"STARLINK-36818","OBJECT_ID":"2026-035A","EPOCH":"2026-03-04T01:40:18.192864","MEAN_MOTION":15.99698218,"ECCENTRICITY":5.79e-5,"INCLINATION":97.2781,"RA_OF_ASC_NODE":354.9614,"ARG_OF_PERICENTER":112.423,"MEAN_ANOMALY":247.711,"EPHEMERIS_TYPE":0,"CLASSIFICATION_TYPE":"U","NORAD_CAT_ID":67879,"ELEMENT_SET_NO":999,"REV_AT_EPOCH":294,"BSTAR":-0.00046845,"MEAN_MOTION_DOT":-0.00234126,"MEAN_MOTION_DDOT":2.2312e-5},{"OBJECT_NAME":"STARLINK-36821","OBJECT_ID":"2026-035B","EPOCH":"2026-03-04T01:38:45.667104","MEAN_MOTION":15.998969,"ECCENTRICITY":0.0001138,"INCLINATION":97.2775,"RA_OF_ASC_NODE":354.9629,"ARG_OF_PERICENTER":187.2613,"MEAN_ANOMALY":172.865,"EPHEMERIS_TYPE":0,"CLASSIFICATION_TYPE":"U","NORAD_CAT_ID":67880,"ELEMENT_SET_NO":999,"REV_AT_EPOCH":294,"BSTAR":-0.00052561,"MEAN_MOTION_DOT":-0.00265556,"MEAN_MOTION_DDOT":2.7989e-5},{"OBJECT_NAME":"STARLINK-36808","OBJECT_ID":"2026-035C","EPOCH":"2026-03-04T01:39:43.696800","MEAN_MOTION":15.99789349,"ECCENTRICITY":7.27e-5,"INCLINATION":97.2778,"RA_OF_ASC_NODE":354.9618,"ARG_OF_PERICENTER":101.8931,"MEAN_ANOMALY":258.2429,"EPHEMERIS_TYPE":0,"CLASSIFICATION_TYPE":"U","NORAD_CAT_ID":67881,"ELEMENT_SET_NO":999,"REV_AT_EPOCH":294,"BSTAR":-0.00036268,"MEAN_MOTION_DOT":-0.00182379,"MEAN_MOTION_DDOT":1.4538e-5},{"OBJECT_NAME":"STARLINK-36817","OBJECT_ID":"2026-035D","EPOCH":"2026-03-04T01:36:53.761824","MEAN_MOTION":16.00120574,"ECCENTRICITY":4.68e-5,"INCLINATION":97.2769,"RA_OF_ASC_NODE":354.9647,"ARG_OF_PERICENTER":141.1292,"MEAN_ANOMALY":219.0021,"EPHEMERIS_TYPE":0,"CLASSIFICATION_TYPE":"U","NORAD_CAT_ID":67882,"ELEMENT_SET_NO":999,"REV_AT_EPOCH":294,"BSTAR":-0.00040253,"MEAN_MOTION_DOT":-0.00206143,"MEAN_MOTION_DDOT":1.7957e-5}]
