OBJECT B                
1 59678U 24085B   26063.23324355  .00571042  13359-3  15972-2 0  9997
2 59678  97.3353 155.1610 0008668 299.2373  60.8034 15.93575673102543
RUZAEVKA 390 (RS44S)    
1 61766U 24199AH  26063.12617074  .01150025  72170-3  19003-2 0  9995
2 61766  97.2855 305.0371 0001900 163.4709 196.6633 16.03272199118636
SZ-19 DEB               
1 63801U 24194E   26063.02678502  .00682534  26921-3  52954-3 0  9994
2 63801  41.4591 197.9398 0013137   7.1947 352.9097 16.13757913 48306
COSMOS 2591             
1 65267U 25182A   26062.98426367  .00062288  33351-5  15095-3 0  9994
2 65267  96.5933 356.3382 0006761 171.4708 188.6687 15.96415458 30916
COSMOS 2592             
1 65268U 25182B   26062.99993066  .00004774  18649-5  12869-4 0  9997
2 65268  96.5919 356.3127 0005961 184.5144 175.6082 15.96425315 30916
COSMOS 2593             
1 65269U 25182C   26062.57684145  .00023533  20683-5  58145-4 0  9999
2 65269  96.5897 355.8771 0004824 174.7624 185.3705 15.96360776 30843
COSMOS 2594             
1 65270U 25182D   26063.09398777  .00164252  12233-4  39811-3 0  9995
2 65270  96.5936 356.3402 0004905 135.1462 225.0214 15.96329266 30944
ISS OBJECT XK           
1 65731U 98067XK  26063.05584253  .01140742  75302-3  14788-2 0  9990
2 65731  51.6154  76.3709 0005697  59.0422 301.1150 16.06563087 25995
BOTAN                   
1 65942U 98067XP  26062.30429370  .04760636  12041-4  14503-2 0  9999
2 65942  51.6040  82.5602 0002926  46.9281 313.1984 16.26065139 22592
CZ-4B R/B               
1 66989U 25289B   26063.24704281  .02897095  25380-5  79612-3 0  9990
2 66989  97.5023 141.5416 0026579  46.0115 314.3362 16.26954561 13476
ZK-1A R/B               
1 67002U 25292K   26063.25673743  .05565547  27050-5  80545-3 0  9990
2 67002  97.6773 150.1770 0028508  57.1933 303.2102 16.33309889 13238
STARLINK-36618          
1 67847U 26033AC  26063.16670139 -.00983433  30594-3 -22707-2 0  9992
2 67847  42.9858 303.4251 0002255 276.0113 293.0066 15.96286263  3773
STARLINK-36818          
1 67879U 26035A   26063.06965501 -.00234126  22312-4 -46845-3 0  9996
2 67879  97.2781 354.9614 0000579 112.4230 247.7110 15.99698218  2944
STARLINK-36821          
1 67880U 26035B   26063.06858411 -.00265556  27989-4 -52561-3 0  9997
2 67880  97.2775 354.9629 0001138 187.2613 172.8650 15.99896900  2947
STARLINK-36808          
1 67881U 26035C   26063.06925575 -.00182379  14538-4 -36268-3 0  9997
2 67881  97.2778 354.9618 0000727 101.8931 258.2429 15.99789349  2948
STARLINK-36817          
1 67882U 26035D   26063.06728891 -.00206143  17957-4 -40253-3 0  9993
2 67882  97.2769 354.9647 0000468 141.1292 219.0021 16.00120574  2945
